NAVSTAR 77 (USA 289)    
1 43873U 18109A   23304.00190587  .00000035  00000+0  00000+0 0  9992
2 43873  55.2128 130.1251 0026852 189.7331 353.2758  2.00570783 35810
